[{"OBJECT_NAME":"SAUDICOMSAT 5","OBJECT_ID":"2007-012H","EPOCH":"2026-03-09T22:03:24.279264","MEAN_MOTION":14.68003311,"ECCENTRICITY":0.00488208,"INCLINATION":98.3394,"RA_OF_ASC_NODE":41.8497,"ARG_OF_PERICENTER":78.2285,"MEAN_ANOMALY":282.439,"EPHEMERIS_TYPE":0,"CLASSIFICATION_TYPE":"U","NORAD_CAT_ID":31124,"ELEMENT_SET_NO":999,"REV_AT_EPOCH":903,"BSTAR":0.00021628636,"MEAN_MOTION_DOT":1.209e-5,"MEAN_MOTION_DDOT":0},{"OBJECT_NAME":"COSMOS 2251 DEB","OBJECT_ID":"1993-036KK","EPOCH":"2026-03-09T21:57:14.285088","MEAN_MOTION":14.58364845,"ECCENTRICITY":0.00450986,"INCLINATION":74.0576,"RA_OF_ASC_NODE":238.3959,"ARG_OF_PERICENTER":214.5489,"MEAN_ANOMALY":266.9752,"EPHEMERIS_TYPE":0,"CLASSIFICATION_TYPE":"U","NORAD_CAT_ID":34114,"ELEMENT_SET_NO":999,"REV_AT_EPOCH":89071,"BSTAR":0.0026892954,"MEAN_MOTION_DOT":0.00012624,"MEAN_MOTION_DDOT":0}]
